CCSDS_OMM_VERS = 2.0
CREATION_DATE  = 
ORIGINATOR     = 

OBJECT_NAME    = STARLINK-35325
OBJECT_ID      = 2025-235Y
CENTER_NAME    = EARTH
REF_FRAME      = TEME
TIME_SYSTEM    = UTC
MEAN_ELEMENT_THEORY = SGP/SGP4

EPOCH          = 2025-11-13T02:25:04.258272
MEAN_MOTION    = 15.49368274
ECCENTRICITY   = .0001381
INCLINATION    = 53.1604
RA_OF_ASC_NODE = 68.7584
ARG_OF_PERICENTER = 84.9896
MEAN_ANOMALY   = 275.1270

EPHEMERIS_TYPE = 0
CLASSIFICATION_TYPE = U
NORAD_CAT_ID   = 66080
ELEMENT_SET_NO = 999
REV_AT_EPOCH   = 504
BSTAR          = .16744E-2
MEAN_MOTION_DOT = .94E-3
MEAN_MOTION_DDOT = 0

CCSDS_OMM_VERS = 2.0
CREATION_DATE  = 
ORIGINATOR     = 

OBJECT_NAME    = STARLINK-35403
OBJECT_ID      = 2025-235Z
CENTER_NAME    = EARTH
REF_FRAME      = TEME
TIME_SYSTEM    = UTC
MEAN_ELEMENT_THEORY = SGP/SGP4

EPOCH          = 2025-11-13T02:23:05.536032
MEAN_MOTION    = 15.49369914
ECCENTRICITY   = .0001465
INCLINATION    = 53.1602
RA_OF_ASC_NODE = 68.7512
ARG_OF_PERICENTER = 84.9194
MEAN_ANOMALY   = 275.1982

EPHEMERIS_TYPE = 0
CLASSIFICATION_TYPE = U
NORAD_CAT_ID   = 66081
ELEMENT_SET_NO = 999
REV_AT_EPOCH   = 504
BSTAR          = .18366E-2
MEAN_MOTION_DOT = .103281E-2
MEAN_MOTION_DDOT = 0

CCSDS_OMM_VERS = 2.0
CREATION_DATE  = 
ORIGINATOR     = 

OBJECT_NAME    = STARLINK-35011
OBJECT_ID      = 2025-235AA
CENTER_NAME    = EARTH
REF_FRAME      = TEME
TIME_SYSTEM    = UTC
MEAN_ELEMENT_THEORY = SGP/SGP4

EPOCH          = 2025-11-13T02:23:35.229120
MEAN_MOTION    = 15.49375683
ECCENTRICITY   = .0001497
INCLINATION    = 53.1605
RA_OF_ASC_NODE = 68.7509
ARG_OF_PERICENTER = 86.2103
MEAN_ANOMALY   = 273.9077

EPHEMERIS_TYPE = 0
CLASSIFICATION_TYPE = U
NORAD_CAT_ID   = 66082
ELEMENT_SET_NO = 999
REV_AT_EPOCH   = 504
BSTAR          = .2315E-2
MEAN_MOTION_DOT = .130788E-2
MEAN_MOTION_DDOT = 0

CCSDS_OMM_VERS = 2.0
CREATION_DATE  = 
ORIGINATOR     = 

OBJECT_NAME    = STARLINK-35291
OBJECT_ID      = 2025-235AB
CENTER_NAME    = EARTH
REF_FRAME      = TEME
TIME_SYSTEM    = UTC
MEAN_ELEMENT_THEORY = SGP/SGP4

EPOCH          = 2025-11-13T00:49:42.446784
MEAN_MOTION    = 15.49373614
ECCENTRICITY   = .000134
INCLINATION    = 53.1601
RA_OF_ASC_NODE = 69.0556
ARG_OF_PERICENTER = 97.2711
MEAN_ANOMALY   = 262.8450

EPHEMERIS_TYPE = 0
CLASSIFICATION_TYPE = U
NORAD_CAT_ID   = 66083
ELEMENT_SET_NO = 999
REV_AT_EPOCH   = 500
BSTAR          = .25385E-2
MEAN_MOTION_DOT = .143685E-2
MEAN_MOTION_DDOT = 0

CCSDS_OMM_VERS = 2.0
CREATION_DATE  = 
ORIGINATOR     = 

OBJECT_NAME    = STARLINK-35379
OBJECT_ID      = 2025-235AC
CENTER_NAME    = EARTH
REF_FRAME      = TEME
TIME_SYSTEM    = UTC
MEAN_ELEMENT_THEORY = SGP/SGP4

EPOCH          = 2025-11-13T00:49:13.407744
MEAN_MOTION    = 15.49342047
ECCENTRICITY   = .0001506
INCLINATION    = 53.1599
RA_OF_ASC_NODE = 69.0529
ARG_OF_PERICENTER = 72.7473
MEAN_ANOMALY   = 287.3700

EPHEMERIS_TYPE = 0
CLASSIFICATION_TYPE = U
NORAD_CAT_ID   = 66084
ELEMENT_SET_NO = 999
REV_AT_EPOCH   = 503
BSTAR          = .23158E-2
MEAN_MOTION_DOT = .130674E-2
MEAN_MOTION_DDOT = 0

CCSDS_OMM_VERS = 2.0
CREATION_DATE  = 
ORIGINATOR     = 

OBJECT_NAME    = STARLINK-35370
OBJECT_ID      = 2025-235AD
CENTER_NAME    = EARTH
REF_FRAME      = TEME
TIME_SYSTEM    = UTC
MEAN_ELEMENT_THEORY = SGP/SGP4

EPOCH          = 2025-11-13T00:48:43.297344
MEAN_MOTION    = 15.49366033
ECCENTRICITY   = .0001802
INCLINATION    = 53.1603
RA_OF_ASC_NODE = 69.0495
ARG_OF_PERICENTER = 83.7117
MEAN_ANOMALY   = 276.4097

EPHEMERIS_TYPE = 0
CLASSIFICATION_TYPE = U
NORAD_CAT_ID   = 66085
ELEMENT_SET_NO = 999
REV_AT_EPOCH   = 500
BSTAR          = .17789E-2
MEAN_MOTION_DOT = .99962E-3
MEAN_MOTION_DDOT = 0

CCSDS_OMM_VERS = 2.0
CREATION_DATE  = 
ORIGINATOR     = 

OBJECT_NAME    = STARLINK-35596
OBJECT_ID      = 2025-236A
CENTER_NAME    = EARTH
REF_FRAME      = TEME
TIME_SYSTEM    = UTC
MEAN_ELEMENT_THEORY = SGP/SGP4

EPOCH          = 2025-11-13T04:00:03.998880
MEAN_MOTION    = 15.55908503
ECCENTRICITY   = .0001293
INCLINATION    = 53.1591
RA_OF_ASC_NODE = 287.2400
ARG_OF_PERICENTER = 77.7177
MEAN_ANOMALY   = 315.1284

EPHEMERIS_TYPE = 0
CLASSIFICATION_TYPE = U
NORAD_CAT_ID   = 66086
ELEMENT_SET_NO = 999
REV_AT_EPOCH   = 512
BSTAR          = -.33826E-1
MEAN_MOTION_DOT = -.2121939E-1
MEAN_MOTION_DDOT = 0

CCSDS_OMM_VERS = 2.0
CREATION_DATE  = 
ORIGINATOR     = 

OBJECT_NAME    = STARLINK-35563
OBJECT_ID      = 2025-236B
CENTER_NAME    = EARTH
REF_FRAME      = TEME
TIME_SYSTEM    = UTC
MEAN_ELEMENT_THEORY = SGP/SGP4

EPOCH          = 2025-11-13T04:00:03.998880
MEAN_MOTION    = 15.55908269
ECCENTRICITY   = .0001222
INCLINATION    = 53.1590
RA_OF_ASC_NODE = 287.2360
ARG_OF_PERICENTER = 78.4647
MEAN_ANOMALY   = 316.2985

EPHEMERIS_TYPE = 0
CLASSIFICATION_TYPE = U
NORAD_CAT_ID   = 66087
ELEMENT_SET_NO = 999
REV_AT_EPOCH   = 506
BSTAR          = -.33814E-1
MEAN_MOTION_DOT = -.2121213E-1
MEAN_MOTION_DDOT = 0

CCSDS_OMM_VERS = 2.0
CREATION_DATE  = 
ORIGINATOR     = 

OBJECT_NAME    = STARLINK-35461
OBJECT_ID      = 2025-236C
CENTER_NAME    = EARTH
REF_FRAME      = TEME
TIME_SYSTEM    = UTC
MEAN_ELEMENT_THEORY = SGP/SGP4

EPOCH          = 2025-11-13T04:00:03.998880
MEAN_MOTION    = 15.55897048
ECCENTRICITY   = .000122
INCLINATION    = 53.1590
RA_OF_ASC_NODE = 287.2295
ARG_OF_PERICENTER = 77.5347
MEAN_ANOMALY   = 321.0743

EPHEMERIS_TYPE = 0
CLASSIFICATION_TYPE = U
NORAD_CAT_ID   = 66088
ELEMENT_SET_NO = 999
REV_AT_EPOCH   = 506
BSTAR          = -.33676E-1
MEAN_MOTION_DOT = -.2112718E-1
MEAN_MOTION_DDOT = 0

CCSDS_OMM_VERS = 2.0
CREATION_DATE  = 
ORIGINATOR     = 

OBJECT_NAME    = STARLINK-35571
OBJECT_ID      = 2025-236D
CENTER_NAME    = EARTH
REF_FRAME      = TEME
TIME_SYSTEM    = UTC
MEAN_ELEMENT_THEORY = SGP/SGP4

EPOCH          = 2025-11-13T04:00:03.998880
MEAN_MOTION    = 15.55909127
ECCENTRICITY   = .0001233
INCLINATION    = 53.1591
RA_OF_ASC_NODE = 287.2325
ARG_OF_PERICENTER = 80.6779
MEAN_ANOMALY   = 316.0033

EPHEMERIS_TYPE = 0
CLASSIFICATION_TYPE = U
NORAD_CAT_ID   = 66089
ELEMENT_SET_NO = 999
REV_AT_EPOCH   = 512
BSTAR          = -.33861E-1
MEAN_MOTION_DOT = -.2123888E-1
MEAN_MOTION_DDOT = 0

CCSDS_OMM_VERS = 2.0
CREATION_DATE  = 
ORIGINATOR     = 

OBJECT_NAME    = STARLINK-35570
OBJECT_ID      = 2025-236E
CENTER_NAME    = EARTH
REF_FRAME      = TEME
TIME_SYSTEM    = UTC
MEAN_ELEMENT_THEORY = SGP/SGP4

EPOCH          = 2025-11-13T04:00:03.998880
MEAN_MOTION    = 15.55906222
ECCENTRICITY   = .0001164
INCLINATION    = 53.1592
RA_OF_ASC_NODE = 287.2259
ARG_OF_PERICENTER = 71.7042
MEAN_ANOMALY   = 328.8113

EPHEMERIS_TYPE = 0
CLASSIFICATION_TYPE = U
NORAD_CAT_ID   = 66090
ELEMENT_SET_NO = 999
REV_AT_EPOCH   = 512
BSTAR          = -.33764E-1
MEAN_MOTION_DOT = -.2118248E-1
MEAN_MOTION_DDOT = 0

CCSDS_OMM_VERS = 2.0
CREATION_DATE  = 
ORIGINATOR     = 

OBJECT_NAME    = STARLINK-35532
OBJECT_ID      = 2025-236F
CENTER_NAME    = EARTH
REF_FRAME      = TEME
TIME_SYSTEM    = UTC
MEAN_ELEMENT_THEORY = SGP/SGP4

EPOCH          = 2025-11-13T04:00:03.998880
MEAN_MOTION    = 15.55893810
ECCENTRICITY   = .0001092
INCLINATION    = 53.1591
RA_OF_ASC_NODE = 287.2216
ARG_OF_PERICENTER = 68.7396
MEAN_ANOMALY   = 333.7062

EPHEMERIS_TYPE = 0
CLASSIFICATION_TYPE = U
NORAD_CAT_ID   = 66091
ELEMENT_SET_NO = 999
REV_AT_EPOCH   = 512
BSTAR          = -.33612E-1
MEAN_MOTION_DOT = -.2108827E-1
MEAN_MOTION_DDOT = 0

