STARLINK-35325          
1 66080U 25235Y   25317.10074373  .00094000  00000+0  16744-2 0  9996
2 66080  53.1604  68.7584 0001381  84.9896 275.1270 15.49368274  5048
STARLINK-35403          
1 66081U 25235Z   25317.09936963  .00103281  00000+0  18366-2 0  9991
2 66081  53.1602  68.7512 0001465  84.9194 275.1982 15.49369914  5044
STARLINK-35011          
1 66082U 25235AA  25317.09971330  .00130788  00000+0  23150-2 0  9998
2 66082  53.1605  68.7509 0001497  86.2103 273.9077 15.49375683  5045
STARLINK-35291          
1 66083U 25235AB  25317.03451906  .00143685  00000+0  25385-2 0  9997
2 66083  53.1601  69.0556 0001340  97.2711 262.8450 15.49373614  5002
STARLINK-35379          
1 66084U 25235AC  25317.03418296  .00130674  00000+0  23158-2 0  9993
2 66084  53.1599  69.0529 0001506  72.7473 287.3700 15.49342047  5035
STARLINK-35370          
1 66085U 25235AD  25317.03383446  .00099962  00000+0  17789-2 0  9999
2 66085  53.1603  69.0495 0001802  83.7117 276.4097 15.49366033  5006
STARLINK-35596          
1 66086U 25236A   25317.16671295 -.02121939  00000+0 -33826-1 0  9990
2 66086  53.1591 287.2400 0001293  77.7177 315.1284 15.55908503  5129
STARLINK-35563          
1 66087U 25236B   25317.16671295 -.02121213  00000+0 -33814-1 0  9993
2 66087  53.1590 287.2360 0001222  78.4647 316.2985 15.55908269  5068
STARLINK-35461          
1 66088U 25236C   25317.16671295 -.02112718  00000+0 -33676-1 0  9990
2 66088  53.1590 287.2295 0001220  77.5347 321.0743 15.55897048  5069
STARLINK-35571          
1 66089U 25236D   25317.16671295 -.02123888  00000+0 -33861-1 0  9997
2 66089  53.1591 287.2325 0001233  80.6779 316.0033 15.55909127  5128
STARLINK-35570          
1 66090U 25236E   25317.16671295 -.02118248  00000+0 -33764-1 0  9995
2 66090  53.1592 287.2259 0001164  71.7042 328.8113 15.55906222  5127
STARLINK-35532          
1 66091U 25236F   25317.16671295 -.02108827  00000+0 -33612-1 0  9990
2 66091  53.1591 287.2216 0001092  68.7396 333.7062 15.55893810  5124
